XCUBE-1                 
1 62400U 24247Z   26068.48297321  .00009773  00000+0  36224-3 0  9994
2 62400  44.9938 117.7807 0005235 331.1499  28.9094 15.27910558 67702
STARLINK-34609          
1 64768U 25147P   26068.76556498  .00038808  00000+0  13162-2 0  9993
2 64768  53.1589 232.4432 0001165  75.4751 284.6379 15.30183918 38904
